EUTELSAT QUANTUM        
1 49056U 21069B   25281.78748892  .00000000  00000+0  00000+0 0  9991
2 49056   0.0103 245.6107 0002928 345.9266 117.3076  1.00272151 15405
EUTELSAT KONNECT VHTS   
1 53765U 22110A   25281.77856222  .00000019  00000+0  00000+0 0  9997
2 53765   0.0555 101.0216 0003038  81.3598 118.2518  1.00273275  4302
EUTELSAT HOTBIRD 13F    
1 54048U 22134A   25281.78064223  .00000088  00000+0  00000+0 0  9997
2 54048   0.0575 282.0085 0002001  76.2880 313.4051  1.00270712 10850
EUTELSAT HOTBIRD 13G    
1 54225U 22146A   25281.78064223  .00000089  00000+0  00000+0 0  9998
2 54225   0.0494 234.3678 0002032 305.4705 131.8668  1.00271012  4945
EUTELSAT 10B            
1 54259U 22157A   25281.28070293  .00000070  00000+0  00000+0 0  9996
2 54259   0.0597  96.9255 0001863  38.5622 352.7486  1.00268744 10501
EUTELSAT 36D            
1 59346U 24059A   25281.78514892  .00000157  00000+0  00000+0 0  9990
2 59346   0.0165 225.5956 0000135 317.6782 152.9000  1.00270979  5623
